{
    "links": {
        "self": "http://www.neowsapp.com/rest/v1/neo/3388078?api_key=iIulBulltgU6a56xZRHN4H3l9WmuAYTsLGpBGhQ2"
    },
    "id": "3388078",
    "neo_reference_id": "3388078",
    "name": "(2007 TA23)",
    "designation": "2007 TA23",
    "nasa_jpl_url": "http://ssd.jpl.nasa.gov/sbdb.cgi?sstr=3388078",
    "absolute_magnitude_h": 24.9,
    "estimated_diameter": {
        "kilometers": {
            "estimated_diameter_min": 0.0278326768,
            "estimated_diameter_max": 0.0622357573
        },
        "meters": {
            "estimated_diameter_min": 27.8326768072,
            "estimated_diameter_max": 62.2357573367
        },
        "miles": {
            "estimated_diameter_min": 0.0172944182,
            "estimated_diameter_max": 0.0386714948
        },
        "feet": {
            "estimated_diameter_min": 91.3145593761,
            "estimated_diameter_max": 204.1855621004
        }
    },
    "is_potentially_hazardous_asteroid": false,
    "close_approach_data": [
        {
            "close_approach_date": "1950-10-13",
            "close_approach_date_full": "1950-Oct-13 07:40",
            "epoch_date_close_approach": -606500400000,
            "relative_velocity": {
                "kilometers_per_second": "4.3192674714",
                "kilometers_per_hour": "15549.3628969801",
                "miles_per_hour": "9661.7694067374"
            },
            "miss_distance": {
                "astronomical": "0.0423998435",
                "lunar": "16.4935391215",
                "kilometers": "6342926.275933345",
                "miles": "3941311.626816361"
            },
            "orbiting_body": "Earth"
        },
        {
            "close_approach_date": "2007-10-05",
            "close_approach_date_full": "2007-Oct-05 08:24",
            "epoch_date_close_approach": 1191572640000,
            "relative_velocity": {
                "kilometers_per_second": "4.7057260111",
                "kilometers_per_hour": "16940.6136400753",
                "miles_per_hour": "10526.2385143012"
            },
            "miss_distance": {
                "astronomical": "0.0613783381",
                "lunar": "23.8761735209",
                "kilometers": "9182068.643899847",
                "miles": "5705472.8890260086"
            },
            "orbiting_body": "Earth"
        }
    ],
    "orbital_data": {
        "orbit_id": "9",
        "orbit_determination_date": "2017-04-06 09:05:46",
        "first_observation_date": "2007-10-09",
        "last_observation_date": "2007-11-10",
        "data_arc_in_days": 32,
        "observations_used": 18,
        "orbit_uncertainty": "7",
        "minimum_orbit_intersection": ".0432365",
        "jupiter_tisserand_invariant": "4.756",
        "epoch_osculation": "2459000.5",
        "eccentricity": ".2482029960702967",
        "semi_major_axis": "1.382962160528824",
        "inclination": "6.054779699407983",
        "ascending_node_longitude": "18.39261326221378",
        "orbital_period": "594.0375155512107",
        "perihelion_distance": "1.039706808833719",
        "perihelion_argument": "5.793802581089116",
        "aphelion_distance": "1.726217512223929",
        "perihelion_time": "2459139.311749632831",
        "mean_anomaly": "275.8769798882993",
        "mean_motion": ".6060223312090887",
        "equinox": "J2000",
        "orbit_class": {
            "orbit_class_type": "AMO",
            "orbit_class_description": "Near-Earth asteroid orbits similar to that of 1221 Amor",
            "orbit_class_range": "1.017 AU < q (perihelion) < 1.3 AU"
        }
    },
    "is_sentry_object": false
}